start=new Date('2021-12-07T00:00:00.000Z').valueOf();
sats=[{"CLASSIFICATION_TYPE":"U","TIME_SYSTEM":"UTC","DECAY_DATE":null,"ARG_OF_PERICENTER":"75.4060","PERIAPSIS":"545.828","RA_OF_ASC_NODE":"216.6203","CENTER_NAME":"EARTH","EPOCH":"2021-12-06T22:47:00.281184","FILE":"3234296","SITE":"AFETR","OBJECT_ID":"2021-036J","TLE_LINE1":"1 48284U 21036J   21340.94930881  .00001552  00000-0  12310-3 0  9993","PERIOD":"95.592","RCS_SIZE":"LARGE","GP_ID":"191235257","APOAPSIS":"548.615","ECCENTRICITY":"0.00020120","TLE_LINE2":"2 48284  53.0542 216.6203 0002012  75.4060 284.7152 15.06397511 34121","MEAN_MOTION":"15.06397511","MEAN_ELEMENT_THEORY":"SGP4","REF_FRAME":"TEME","BSTAR":"0.00012310000000","SEMIMAJOR_AXIS":"6925.356","MEAN_MOTION_DDOT":"0.0000000000000","REV_AT_EPOCH":"3412","MEAN_ANOMALY":"284.7152","NORAD_CAT_ID":"48284","OBJECT_NAME":"STARLINK-2564","MEAN_MOTION_DOT":"0.00001552","EPHEMERIS_TYPE":"0","ELEMENT_SET_NO":"999","LAUNCH_DATE":"2021-04-29","OBJECT_TYPE":"PAYLOAD","INCLINATION":"53.0542","COUNTRY_CODE":"US"},{"FILE":"3234296","EPOCH":"2021-12-06T22:41:42.737856","CENTER_NAME":"EARTH","RA_OF_ASC_NODE":"216.6392","APOAPSIS":"548.807","GP_ID":"191236008","RCS_SIZE":"LARGE","PERIOD":"95.592","TLE_LINE1":"1 48285U 21036K   21340.94563354  .00001334  00000-0  10846-3 0  9991","SITE":"AFETR","OBJECT_ID":"2021-036K","TIME_SYSTEM":"UTC","CLASSIFICATION_TYPE":"U","PERIAPSIS":"545.633","DECAY_DATE":null,"ARG_OF_PERICENTER":"75.1571","MEAN_MOTION_DOT":"0.00001334","OBJECT_NAME":"STARLINK-2548","NORAD_CAT_ID":"48285","COUNTRY_CODE":"US","INCLINATION":"53.0529","OBJECT_TYPE":"PAYLOAD","LAUNCH_DATE":"2021-04-29","ELEMENT_SET_NO":"999","EPHEMERIS_TYPE":"0","MEAN_ELEMENT_THEORY":"SGP4","MEAN_MOTION":"15.06397911","TLE_LINE2":"2 48285  53.0529 216.6392 0002291  75.1571 284.9672 15.06397911 34122","ECCENTRICITY":"0.00022910","MEAN_ANOMALY":"284.9672","REV_AT_EPOCH":"3412","MEAN_MOTION_DDOT":"0.0000000000000","SEMIMAJOR_AXIS":"6925.355","BSTAR":"0.00010846000000","REF_FRAME":"TEME"},{"ECCENTRICITY":"0.00020010","MEAN_MOTION":"15.06395768","TLE_LINE2":"2 48286  53.0557 216.6608 0002001  70.3877 289.7328 15.06395768 34128","MEAN_ELEMENT_THEORY":"SGP4","REF_FRAME":"TEME","BSTAR":"0.00009544200000","SEMIMAJOR_AXIS":"6925.362","MEAN_ANOMALY":"289.7328","REV_AT_EPOCH":"3412","MEAN_MOTION_DDOT":"0.0000000000000","NORAD_CAT_ID":"48286","OBJECT_NAME":"STARLINK-2547","MEAN_MOTION_DOT":"0.00001140","ELEMENT_SET_NO":"999","EPHEMERIS_TYPE":"0","COUNTRY_CODE":"US","INCLINATION":"53.0557","LAUNCH_DATE":"2021-04-29","OBJECT_TYPE":"PAYLOAD","CLASSIFICATION_TYPE":"U","TIME_SYSTEM":"UTC","PERIAPSIS":"545.841","ARG_OF_PERICENTER":"70.3877","DECAY_DATE":null,"RA_OF_ASC_NODE":"216.6608","EPOCH":"2021-12-06T22:36:23.318784","FILE":"3234296","CENTER_NAME":"EARTH","OBJECT_ID":"2021-036L","SITE":"AFETR","TLE_LINE1":"1 48286U 21036L   21340.94193656  .00001140  00000-0  95442-4 0  9997","RCS_SIZE":"LARGE","GP_ID":"191234756","APOAPSIS":"548.612","PERIOD":"95.592"},{"NORAD_CAT_ID":"48287","MEAN_MOTION_DOT":"0.00002647","OBJECT_NAME":"STARLINK-2566","ELEMENT_SET_NO":"999","EPHEMERIS_TYPE":"0","COUNTRY_CODE":"US","INCLINATION":"53.0535","OBJECT_TYPE":"PAYLOAD","LAUNCH_DATE":"2021-04-29","ECCENTRICITY":"0.00020210","MEAN_ELEMENT_THEORY":"SGP4","TLE_LINE2":"2 48287  53.0535 216.6701 0002021  75.3783 284.7430 15.06406174 34125","MEAN_MOTION":"15.06406174","SEMIMAJOR_AXIS":"6925.330","BSTAR":"0.00019653000000","REF_FRAME":"TEME","MEAN_ANOMALY":"284.7430","REV_AT_EPOCH":"3412","MEAN_MOTION_DDOT":"0.0000000000000","RA_OF_ASC_NODE":"216.6701","FILE":"3234296","EPOCH":"2021-12-06T22:31:04.380960","CENTER_NAME":"EARTH","TLE_LINE1":"1 48287U 21036M   21340.93824515  .00002647  00000-0  19653-3 0  9994","SITE":"AFETR","OBJECT_ID":"2021-036M","APOAPSIS":"548.594","RCS_SIZE":"LARGE","GP_ID":"191234506","PERIOD":"95.592","TIME_SYSTEM":"UTC","CLASSIFICATION_TYPE":"U","PERIAPSIS":"545.795","DECAY_DATE":null,"ARG_OF_PERICENTER":"75.3783"},{"INCLINATION":"53.0557","COUNTRY_CODE":"US","LAUNCH_DATE":"2021-04-29","OBJECT_TYPE":"PAYLOAD","ELEMENT_SET_NO":"999","EPHEMERIS_TYPE":"0","OBJECT_NAME":"STARLINK-2562","MEAN_MOTION_DOT":"0.00001282","NORAD_CAT_ID":"48288","MEAN_ANOMALY":"284.3844","REV_AT_EPOCH":"3412","MEAN_MOTION_DDOT":"0.0000000000000","REF_FRAME":"TEME","BSTAR":"0.00010499000000","SEMIMAJOR_AXIS":"6925.363","TLE_LINE2":"2 48288  53.0557 216.6937 0002075  75.7375 284.3844 15.06395373 34124","MEAN_MOTION":"15.06395373","MEAN_ELEMENT_THEORY":"SGP4","ECCENTRICITY":"0.00020750","RCS_SIZE":"LARGE","GP_ID":"191235758","APOAPSIS":"548.665","PERIOD":"95.592","OBJECT_ID":"2021-036N","SITE":"AFETR","TLE_LINE1":"1 48288U 21036N   21340.93457210  .00001282  00000-0  10499-3 0  9992","EPOCH":"2021-12-06T22:25:47.029440","FILE":"3234296","CENTER_NAME":"EARTH","RA_OF_ASC_NODE":"216.6937","PERIAPSIS":"545.791","DECAY_DATE":null,"ARG_OF_PERICENTER":"75.7375","CLASSIFICATION_TYPE":"U","TIME_SYSTEM":"UTC"},{"PERIOD":"95.593","APOAPSIS":"548.571","RCS_SIZE":"LARGE","GP_ID":"191235508","TLE_LINE1":"1 48289U 21036P   21340.93089332  .00001182  00000-0  98303-4 0  9999","SITE":"AFETR","OBJECT_ID":"2021-036P","CENTER_NAME":"EARTH","FILE":"3234296","EPOCH":"2021-12-06T22:20:29.182848","RA_OF_ASC_NODE":"216.7033","DECAY_DATE":null,"ARG_OF_PERICENTER":"74.9182","PERIAPSIS":"545.929","TIME_SYSTEM":"UTC","CLASSIFICATION_TYPE":"U","OBJECT_TYPE":"PAYLOAD","LAUNCH_DATE":"2021-04-29","INCLINATION":"53.0541","COUNTRY_CODE":"US","EPHEMERIS_TYPE":"0","ELEMENT_SET_NO":"999","MEAN_MOTION_DOT":"0.00001182","OBJECT_NAME":"STARLINK-2545","NORAD_CAT_ID":"48289","MEAN_MOTION_DDOT":"0.0000000000000","REV_AT_EPOCH":"3412","MEAN_ANOMALY":"285.2018","SEMIMAJOR_AXIS":"6925.385","REF_FRAME":"TEME","BSTAR":"0.00009830300000","MEAN_ELEMENT_THEORY":"SGP4","MEAN_MOTION":"15.06388157","TLE_LINE2":"2 48289  53.0541 216.7033 0001907  74.9182 285.2018 15.06388157 34121","ECCENTRICITY":"0.00019070"},{"TLE_LINE1":"1 48290U 21036Q   21340.92719467 -.00000625  00000-0 -23026-4 0  9992","OBJECT_ID":"2021-036Q","SITE":"AFETR","APOAPSIS":"548.627","RCS_SIZE":"LARGE","GP_ID":"191234256","PERIOD":"95.593","RA_OF_ASC_NODE":"216.7407","FILE":"3234296","EPOCH":"2021-12-06T22:15:09.619488","CENTER_NAME":"EARTH","PERIAPSIS":"545.854","ARG_OF_PERICENTER":"74.4600","DECAY_DATE":null,"TIME_SYSTEM":"UTC","CLASSIFICATION_TYPE":"U","ELEMENT_SET_NO":"999","EPHEMERIS_TYPE":"0","COUNTRY_CODE":"US","INCLINATION":"53.0546","OBJECT_TYPE":"PAYLOAD","LAUNCH_DATE":"2021-04-29","NORAD_CAT_ID":"48290","MEAN_MOTION_DOT":"-0.00000625","OBJECT_NAME":"STARLINK-2540","SEMIMAJOR_AXIS":"6925.375","REF_FRAME":"TEME","BSTAR":"-0.00002302600000","MEAN_ANOMALY":"285.6610","MEAN_MOTION_DDOT":"0.0000000000000","REV_AT_EPOCH":"3412","ECCENTRICITY":"0.00020020","MEAN_ELEMENT_THEORY":"SGP4","MEAN_MOTION":"15.06391315","TLE_LINE2":"2 48290  53.0546 216.7407 0002002  74.4600 285.6610 15.06391315 34122"},{"GP_ID":"191235007","RCS_SIZE":"LARGE","APOAPSIS":"548.621","PERIOD":"95.593","SITE":"AFETR","OBJECT_ID":"2021-036R","TLE_LINE1":"1 48291U 21036R   21340.92351060  .00000174  00000-0  30628-4 0  9997","EPOCH":"2021-12-06T22:09:51.315840","FILE":"3234296","CENTER_NAME":"EARTH","RA_OF_ASC_NODE":"216.7493","PERIAPSIS":"545.858","DECAY_DATE":null,"ARG_OF_PERICENTER":"69.3652","CLASSIFICATION_TYPE":"U","TIME_SYSTEM":"UTC","INCLINATION":"53.0548","COUNTRY_CODE":"US","LAUNCH_DATE":"2021-04-29","OBJECT_TYPE":"PAYLOAD","ELEMENT_SET_NO":"999","EPHEMERIS_TYPE":"0","OBJECT_NAME":"STARLINK-2555","MEAN_MOTION_DOT":"0.00000174","NORAD_CAT_ID":"48291","MEAN_ANOMALY":"290.7551","REV_AT_EPOCH":"3412","MEAN_MOTION_DDOT":"0.0000000000000","REF_FRAME":"TEME","BSTAR":"0.00003062800000","SEMIMAJOR_AXIS":"6925.375","MEAN_MOTION":"15.06391530","TLE_LINE2":"2 48291  53.0548 216.7493 0001995  69.3652 290.7551 15.06391530 34120","MEAN_ELEMENT_THEORY":"SGP4","ECCENTRICITY":"0.00019950"},{"TLE_LINE2":"2 48292  53.0550 216.7660 0002184  67.5354 292.5866 15.06397193 34120","MEAN_MOTION":"15.06397193","MEAN_ELEMENT_THEORY":"SGP4","ECCENTRICITY":"0.00021840","MEAN_MOTION_DDOT":"0.0000000000000","REV_AT_EPOCH":"3412","MEAN_ANOMALY":"292.5866","BSTAR":"0.00008494400000","REF_FRAME":"TEME","SEMIMAJOR_AXIS":"6925.357","OBJECT_NAME":"STARLINK-2542","MEAN_MOTION_DOT":"0.00000984","NORAD_CAT_ID":"48292","LAUNCH_DATE":"2021-04-29","OBJECT_TYPE":"PAYLOAD","COUNTRY_CODE":"US","INCLINATION":"53.0550","EPHEMERIS_TYPE":"0","ELEMENT_SET_NO":"999","CLASSIFICATION_TYPE":"U","TIME_SYSTEM":"UTC","DECAY_DATE":null,"ARG_OF_PERICENTER":"67.5354","PERIAPSIS":"545.710","CENTER_NAME":"EARTH","EPOCH":"2021-12-06T22:03:11.303712","FILE":"3234296","RA_OF_ASC_NODE":"216.7660","PERIOD":"95.592","RCS_SIZE":"LARGE","GP_ID":"191235258","APOAPSIS":"548.735","OBJECT_ID":"2021-036S","SITE":"AFETR","TLE_LINE1":"1 48292U 21036S   21340.91888083  .00000984  00000-0  84944-4 0  9996"},{"OBJECT_NAME":"STARLINK-2550","MEAN_MOTION_DOT":"0.00001109","NORAD_CAT_ID":"48293","COUNTRY_CODE":"US","INCLINATION":"53.0548","LAUNCH_DATE":"2021-04-29","OBJECT_TYPE":"PAYLOAD","ELEMENT_SET_NO":"999","EPHEMERIS_TYPE":"0","TLE_LINE2":"2 48293  53.0548 216.7756 0002261  70.7842 289.3392 15.06394196 34126","MEAN_MOTION":"15.06394196","MEAN_ELEMENT_THEORY":"SGP4","ECCENTRICITY":"0.00022610","MEAN_ANOMALY":"289.3392","MEAN_MOTION_DDOT":"0.0000000000000","REV_AT_EPOCH":"3412","REF_FRAME":"TEME","BSTAR":"0.00009337700000","SEMIMAJOR_AXIS":"6925.366","EPOCH":"2021-12-06T21:59:14.467488","FILE":"3234296","CENTER_NAME":"EARTH","RA_OF_ASC_NODE":"216.7756","RCS_SIZE":"LARGE","GP_ID":"191236009","APOAPSIS":"548.797","PERIOD":"95.593","SITE":"AFETR","OBJECT_ID":"2021-036T","TLE_LINE1":"1 48293U 21036T   21340.91613967  .00001109  00000-0  93377-4 0  9994","CLASSIFICATION_TYPE":"U","TIME_SYSTEM":"UTC","PERIAPSIS":"545.666","DECAY_DATE":null,"ARG_OF_PERICENTER":"70.7842"}];
